[{"OBJECT_NAME":"OCO 2","OBJECT_ID":"2014-035A","EPOCH":"2026-03-09T22:15:57.149856","MEAN_MOTION":14.57095091,"ECCENTRICITY":0.00012283,"INCLINATION":98.2095,"RA_OF_ASC_NODE":11.7709,"ARG_OF_PERICENTER":93.7324,"MEAN_ANOMALY":266.4015,"EPHEMERIS_TYPE":0,"CLASSIFICATION_TYPE":"U","NORAD_CAT_ID":40059,"ELEMENT_SET_NO":999,"REV_AT_EPOCH":62159,"BSTAR":0.00017420866,"MEAN_MOTION_DOT":7.39e-6,"MEAN_MOTION_DDOT":0},{"OBJECT_NAME":"UNKNOWN","OBJECT_ID":"","EPOCH":"2026-03-07T01:22:55.877088","MEAN_MOTION":14.36124034,"ECCENTRICITY":0.0098448,"INCLINATION":66.7677,"RA_OF_ASC_NODE":285.9003,"ARG_OF_PERICENTER":248.7151,"MEAN_ANOMALY":110.3417,"EPHEMERIS_TYPE":0,"CLASSIFICATION_TYPE":"U","NORAD_CAT_ID":82597,"ELEMENT_SET_NO":999,"REV_AT_EPOCH":64108,"BSTAR":0.00050521,"MEAN_MOTION_DOT":1.468e-5,"MEAN_MOTION_DDOT":0}]
